INTELSAT 902 (IS-902)   
1 26900U 01039A   26187.90857825 -.00000272  00000+0  00000+0 0  9998
2 26900   6.1655  71.5417 0004302  32.4645  97.8422  1.00270287 90895
INTELSAT 904 (IS-904)   
1 27380U 02007A   26188.18794693 -.00000214  00000+0  00000+0 0  9997
2 27380   6.9666  68.9424 0005679  20.0221 232.3782  1.00273127 51963
DIRECTV 5 (TEMPO 1)     
1 27426U 02023A   26188.12388441 -.00000045  00000+0  00000+0 0  9992
2 27426   4.9254  75.0633 0003152  32.6464 111.8817  1.00271117 88325
INTELSAT 905 (IS-905)   
1 27438U 02027A   26188.21505654  .00000105  00000+0  00000+0 0  9992
2 27438   6.8004  69.5566 0003714  40.5766 115.2715  1.00271946 51563
GALAXY 3C (G-3C)        
1 27445U 02030A   26187.84108985 -.00000140  00000+0  00000+0 0  9998
2 27445   3.7806  77.7225 0001694  34.3965  20.6681  1.00271338 46691
INTELSAT 906 (IS-906)   
1 27513U 02041A   26188.15780127  .00000025  00000+0  00000+0 0  9996
2 27513   5.8519  72.6757 0004013  15.2796 318.1098  1.00271502 87227
GALAXY 13 (HORIZONS-1)  
1 27954U 03044A   26188.20981927  .00000147  00000+0  00000+0 0  9991
2 27954   1.4699  83.6084 0001749  21.8675 105.2372  1.00274360 46774
INTELSAT 10-02          
1 28358U 04022A   26188.14488787  .00000003  00000+0  00000+0 0  9997
2 28358   0.0449 259.9546 0000369   6.4894  69.8299  1.00264910 80750
DIRECTV 8               
1 28659U 05019A   26188.05019985  .00000016  00000+0  00000+0 0  9992
2 28659   0.0198  44.5404 0003159  73.4869  66.0191  1.00271820 77273
GALAXY 28 (G-28)        
1 28702U 05022A   26188.18794693 -.00000187  00000+0  00000+0 0  9995
2 28702   3.3468  78.6921 0002279  29.1868 217.8420  1.00270690 52176
GALAXY 16 (G-16)        
1 29236U 06023A   26188.13612595 -.00000112  00000+0  00000+0 0  9993
2 29236   0.0303 133.0339 0002525 337.1474 124.9275  1.00270774 73171
DIRECTV 9S              
1 29494U 06043A   26188.12502344 -.00000100  00000+0  00000+0 0  9997
2 29494   2.4689  80.6672 0005167  28.5053 119.7356  1.00271232 51589
GALAXY 17 (G-17)        
1 31307U 07016B   26188.12823012 -.00000193  00000+0  00000+0 0  9994
2 31307   3.0188  79.6528 0003730  25.5148 141.0714  1.00272407 70009
INTELSAT 11 (IS-11)     
1 32253U 07044B   26188.15251458  .00000047  00000+0  00000+0 0  9995
2 32253   3.6140  78.4311 0003802  95.5207 204.0213  0.99049333 68642
HORIZONS-2              
1 32388U 07063B   26188.19776697 -.00000240  00000+0  00000+0 0  9992
2 32388   2.6504  80.3851 0003807  13.2405 188.9469  1.00272330 68019
DIRECTV 11              
1 32729U 08013A   26187.62633208 -.00000111  00000+0  00000+0 0  9991
2 32729   0.0429 214.4667 0000241 227.3670 329.0652  1.00269705 45785
GALAXY 18 (G-18)        
1 32951U 08024A   26188.04941985  .00000040  00000+0  00000+0 0  9991
2 32951   0.0135 302.9731 0002927 172.7228  64.1212  1.00272603 46057
GALAXY 19 (G-19)        
1 33376U 08045A   26188.18615492 -.00000124  00000+0  00000+0 0  9996
2 33376   0.0584 254.0946 0002809 235.1919 125.8776  1.00271725 65103
FM-5                    
1 35493U 09034A   26187.77146750 -.00000185  00000+0  00000+0 0  9994
2 35493   0.0414 265.3083 0001165  77.7507 133.2586  1.00271114 46845
INTELSAT 14 (IS-14)     
1 36097U 09064A   26188.19350480  .00000000  00000+0  00000+0 0  9997
2 36097   0.0218  15.2338 0002286 100.4611 194.1442  1.00269109 60808
INTELSAT 15 (IS-15)     
1 36106U 09067A   26188.16187463 -.00000170  00000+0  00000+0 0  9996
2 36106   0.0176  24.3334 0002278  86.4837 317.7435  1.00271377 41425
DIRECTV 12              
1 36131U 09075A   26187.91080358 -.00000088  00000+0  00000+0 0  9998
2 36131   0.0412 201.0027 0000151 333.1848 335.8588  1.00269850 46755
INTELSAT 16 (IS-16)     
1 36397U 10006A   26187.84481654 -.00000230  00000+0  00000+0 0  9993
2 36397   0.0169 315.0873 0002475 173.1047  24.5633  1.00270016 59851
XM-5                    
1 37185U 10053A   26188.12225008 -.00000008  00000+0  00000+0 0  9995
2 37185   0.0654 268.3056 0001735 309.5249 356.0806  1.00270965 57683
INTELSAT 17 (IS-17)     
1 37238U 10065B   26188.15814794  .00000013  00000+0  00000+0 0  9991
2 37238   0.0081  71.7599 0002595  39.3646 296.9251  1.00272512 53444
INTELSAT 28 (IS-28)     
1 37392U 11016A   26187.71099740 -.00000211  00000+0  00000+0 0  9997
2 37392   1.8534  82.3902 0003753  27.7420  38.7679  1.00270512 53489
INTELSAT 18 (IS-18)     
1 37834U 11056A   26188.10940272  .00000068  00000+0  00000+0 0  9990
2 37834   0.0154 329.0072 0001859 147.5432  27.9063  1.00271465 54012
INTELSAT 22 (IS-22)     
1 38098U 12011A   26188.08800389  .00000000  00000+0  00000+0 0  9992
2 38098   0.0267  55.0939 0001781  67.5931 266.1382  1.00269463  7381
INTELSAT 19 (IS-19)     
1 38356U 12030A   26187.89251683  .00000000  00000+0  00000+0 0  9995
2 38356   0.0223  21.2636 0003124  98.7240 292.1864  1.00270321 50647
INTELSAT 20 (IS-20)     
1 38740U 12043A   26188.15858127 -.00000009  00000+0  00000+0 0  9992
2 38740   0.0097  52.8446 0001161 126.0495 231.8117  1.00270925 50942
INTELSAT 21 (IS-21)     
1 38749U 12045A   26188.13353449 -.00000270  00000+0  00000+0 0  9998
2 38749   0.0160 332.7683 0001784 153.6704 148.7417  1.00270384 50729
