OBJECT_NAME,OBJECT_ID,EPOCH,MEAN_MOTION,ECCENTRICITY,INCLINATION,RA_OF_ASC_NODE,ARG_OF_PERICENTER,MEAN_ANOMALY,EPHEMERIS_TYPE,CLASSIFICATION_TYPE,NORAD_CAT_ID,ELEMENT_SET_NO,REV_AT_EPOCH,BSTAR,MEAN_MOTION_DOT,MEAN_MOTION_DDOT
INTELSAT 902 (IS-902),2001-039A,2026-07-06T21:48:21.160800,1.00270287,.0004302,6.1655,71.5417,32.4645,97.8422,0,U,26900,999,9089,0,-.272E-5,0
INTELSAT 904 (IS-904),2002-007A,2026-07-07T04:30:38.614752,1.00273127,.0005679,6.9666,68.9424,20.0221,232.3782,0,U,27380,999,5196,0,-.214E-5,0
DIRECTV 5 (TEMPO 1),2002-023A,2026-07-07T02:58:23.613024,1.00271117,.0003152,4.9254,75.0633,32.6464,111.8817,0,U,27426,999,8832,0,-.45E-6,0
INTELSAT 905 (IS-905),2002-027A,2026-07-07T05:09:40.885056,1.00271946,.0003714,6.8004,69.5566,40.5766,115.2715,0,U,27438,999,5156,0,.105E-5,0
GALAXY 3C (G-3C),2002-030A,2026-07-06T20:11:10.163040,1.00271338,.0001694,3.7806,77.7225,34.3965,20.6681,0,U,27445,999,4669,0,-.14E-5,0
INTELSAT 906 (IS-906),2002-041A,2026-07-07T03:47:14.029728,1.00271502,.0004013,5.8519,72.6757,15.2796,318.1098,0,U,27513,999,8722,0,.25E-6,0
GALAXY 13 (HORIZONS-1),2003-044A,2026-07-07T05:02:08.384928,1.00274360,.0001749,1.4699,83.6084,21.8675,105.2372,0,U,27954,999,4677,0,.147E-5,0
INTELSAT 10-02,2004-022A,2026-07-07T03:28:38.311968,1.00264910,.0000369,0.0449,259.9546,6.4894,69.8299,0,U,28358,999,8075,0,.3E-7,0
DIRECTV 8,2005-019A,2026-07-07T01:12:17.267040,1.00271820,.0003159,0.0198,44.5404,73.4869,66.0191,0,U,28659,999,7727,0,.16E-6,0
GALAXY 28 (G-28),2005-022A,2026-07-07T04:30:38.614752,1.00270690,.0002279,3.3468,78.6921,29.1868,217.8420,0,U,28702,999,5217,0,-.187E-5,0
GALAXY 16 (G-16),2006-023A,2026-07-07T03:16:01.282080,1.00270774,.0002525,0.0303,133.0339,337.1474,124.9275,0,U,29236,999,7317,0,-.112E-5,0
DIRECTV 9S,2006-043A,2026-07-07T03:00:02.025216,1.00271232,.0005167,2.4689,80.6672,28.5053,119.7356,0,U,29494,999,5158,0,-.1E-5,0
GALAXY 17 (G-17),2007-016B,2026-07-07T03:04:39.082368,1.00272407,.000373,3.0188,79.6528,25.5148,141.0714,0,U,31307,999,7000,0,-.193E-5,0
INTELSAT 11 (IS-11),2007-044B,2026-07-07T03:39:37.259712,0.99049333,.0003802,3.6140,78.4311,95.5207,204.0213,0,U,32253,999,6864,0,.47E-6,0
HORIZONS-2,2007-063B,2026-07-07T04:44:47.066208,1.00272330,.0003807,2.6504,80.3851,13.2405,188.9469,0,U,32388,999,6801,0,-.24E-5,0
DIRECTV 11,2008-013A,2026-07-06T15:01:55.091712,1.00269705,.0000241,0.0429,214.4667,227.3670,329.0652,0,U,32729,999,4578,0,-.111E-5,0
GALAXY 18 (G-18),2008-024A,2026-07-07T01:11:09.875040,1.00272603,.0002927,0.0135,302.9731,172.7228,64.1212,0,U,32951,999,4605,0,.4E-6,0
GALAXY 19 (G-19),2008-045A,2026-07-07T04:28:03.785088,1.00271725,.0002809,0.0584,254.0946,235.1919,125.8776,0,U,33376,999,6510,0,-.124E-5,0
FM-5,2009-034A,2026-07-06T18:30:54.792000,1.00271114,.0001165,0.0414,265.3083,77.7507,133.2586,0,U,35493,999,4684,0,-.185E-5,0
INTELSAT 14 (IS-14),2009-064A,2026-07-07T04:38:38.814720,1.00269109,.0002286,0.0218,15.2338,100.4611,194.1442,0,U,36097,999,6080,0,0,0
INTELSAT 15 (IS-15),2009-067A,2026-07-07T03:53:05.968032,1.00271377,.0002278,0.0176,24.3334,86.4837,317.7435,0,U,36106,999,4142,0,-.17E-5,0
DIRECTV 12,2009-075A,2026-07-06T21:51:33.429312,1.00269850,.0000151,0.0412,201.0027,333.1848,335.8588,0,U,36131,999,4675,0,-.88E-6,0
INTELSAT 16 (IS-16),2010-006A,2026-07-06T20:16:32.149056,1.00270016,.0002475,0.0169,315.0873,173.1047,24.5633,0,U,36397,999,5985,0,-.23E-5,0
XM-5,2010-053A,2026-07-07T02:56:02.406912,1.00270965,.0001735,0.0654,268.3056,309.5249,356.0806,0,U,37185,999,5768,0,-.8E-7,0
INTELSAT 17 (IS-17),2010-065B,2026-07-07T03:47:43.982016,1.00272512,.0002595,0.0081,71.7599,39.3646,296.9251,0,U,37238,999,5344,0,.13E-6,0
INTELSAT 28 (IS-28),2011-016A,2026-07-06T17:03:50.175360,1.00270512,.0003753,1.8534,82.3902,27.7420,38.7679,0,U,37392,999,5348,0,-.211E-5,0
INTELSAT 18 (IS-18),2011-056A,2026-07-07T02:37:32.395008,1.00271465,.0001859,0.0154,329.0072,147.5432,27.9063,0,U,37834,999,5401,0,.68E-6,0
INTELSAT 22 (IS-22),2012-011A,2026-07-07T02:06:43.536096,1.00269463,.0001781,0.0267,55.0939,67.5931,266.1382,0,U,38098,999,738,0,0,0
INTELSAT 19 (IS-19),2012-030A,2026-07-06T21:25:13.454112,1.00270321,.0003124,0.0223,21.2636,98.7240,292.1864,0,U,38356,999,5064,0,0,0
INTELSAT 20 (IS-20),2012-043A,2026-07-07T03:48:21.421728,1.00270925,.0001161,0.0097,52.8446,126.0495,231.8117,0,U,38740,999,5094,0,-.9E-7,0
INTELSAT 21 (IS-21),2012-045A,2026-07-07T03:12:17.379936,1.00270384,.0001784,0.0160,332.7683,153.6704,148.7417,0,U,38749,999,5072,0,-.27E-5,0
